*******************************************************************************
Ephemeris / WWW_USER Mon Mar 24 07:37:22 2025 Pasadena, USA      / Horizons    
*******************************************************************************
Target body name: (2018 RY7)                      {source: JPL#20}
Center body name: Earth (399)                     {source: DE441}
Center-site name: Mauna Kea
*******************************************************************************
Start time      : A.D. 2018-Dec-20 03:57:00.0000 UT      
Stop  time      : A.D. 2018-Dec-20 16:41:00.0000 UT      
Step-size       : 1 minutes
*******************************************************************************
Target pole/equ : undefined
Target radii    : undefined                                                    
Center geodetic : 204.5278, 19.8260847, 4.21024   {E-lon(deg),Lat(deg),Alt(km)}
Center cylindric: 204.5278, 6006.35451, 2151.0229 {E-lon(deg),Dxy(km),Dz(km)}
Center pole/equ : ITRF93                          {East-longitude positive}
Center radii    : 6378.137, 6378.137, 6356.752 km {Equator_a, b, pole_c}       
Target primary  : Sun
Vis. interferer : MOON (R_eq= 1737.400) km        {source: DE441}
Rel. light bend : Sun                             {source: DE441}
Rel. lght bnd GM: 1.3271E+11 km^3/s^2                                          
Small-body perts: Yes                             {source: SB441-N16}
Atmos refraction: NO (AIRLESS)
RA format       : HMS
Time format     : CAL 
Calendar mode   : Mixed Julian/Gregorian
RTS-only print  : NO       
EOP file        : eop.250321.p250617                                           
EOP coverage    : DATA-BASED 1962-JAN-20 TO 2025-MAR-21. PREDICTS-> 2025-JUN-16
Units conversion: 1 au= 149597870.700 km, c= 299792.458 km/s, 1 day= 86400.0 s 
Table cut-offs 1: Elevation (-90.0deg=NO ),Airmass (>38.000=NO), Daylight (YES)
Table cut-offs 2: Solar elongation (  0.0,180.0=NO ),Local Hour Angle( 0.0=NO )
Table cut-offs 3: RA/DEC angular rate (     0.0=NO )                           
*******************************************************************************
Initial IAU76/J2000 heliocentric ecliptic osculating elements (au, days, deg.):
  EPOCH=  2458422.5 ! 2018-Oct-31.00 (TDB)         Residual RMS= .22459        
   EC= .1470549687381346   QR= .8667733479166969   TP= 2458516.8896767548      
   OM= 2.838668085760325   W=  136.9006026425241   IN= 13.35135890147074       
  Equivalent ICRF heliocentric cartesian coordinates (au, au/d):
   X= 8.791791513870114E-01  Y= 4.508422091141234E-01  Z= 3.244113040133835E-01
  VX=-1.085418916943652E-02 VY= 1.006005810562689E-02 VZ= 7.673980932675997E-03
Asteroid physical parameters (km, seconds, rotational period in hours):        
   GM= n.a.                RAD= n.a.               ROTPER= n.a.                
   H= 24.4                 G= .150                 B-V= n.a.                   
                           ALBEDO= n.a.            STYP= n.a.                  
*******************************************************************************
 Date__(UT)__HR:MN     R.A._________(ICRF)_________DEC
******************************************************
$$SOE
 2018-Dec-20 10:06  m  19 16 51.462596 +40 36 49.88178
 2018-Dec-20 10:07  m  19 16 51.394727 +40 36 49.66313
 2018-Dec-20 10:08  m  19 16 51.326881 +40 36 49.44485
 2018-Dec-20 10:09  m  19 16 51.259059 +40 36 49.22693
 2018-Dec-20 10:10  m  19 16 51.191259 +40 36 49.00939
 2018-Dec-20 10:11  m  19 16 51.123482 +40 36 48.79221
 2018-Dec-20 10:12  m  19 16 51.055728 +40 36 48.57541
 2018-Dec-20 10:13  m  19 16 50.987995 +40 36 48.35898
 2018-Dec-20 10:14  m  19 16 50.920285 +40 36 48.14292
 2018-Dec-20 10:15  m  19 16 50.852596 +40 36 47.92723
 2018-Dec-20 10:16  m  19 16 50.784928 +40 36 47.71192
 2018-Dec-20 10:17  m  19 16 50.717282 +40 36 47.49698
 2018-Dec-20 10:18  m  19 16 50.649657 +40 36 47.28241
 2018-Dec-20 10:19  m  19 16 50.582052 +40 36 47.06823
 2018-Dec-20 10:20  m  19 16 50.514468 +40 36 46.85442
 2018-Dec-20 10:21  m  19 16 50.446904 +40 36 46.64098
 2018-Dec-20 10:22  m  19 16 50.379360 +40 36 46.42793
 2018-Dec-20 10:23  m  19 16 50.311836 +40 36 46.21525
 2018-Dec-20 10:24  m  19 16 50.244332 +40 36 46.00295
 2018-Dec-20 10:25  m  19 16 50.176846 +40 36 45.79104
 2018-Dec-20 10:26  m  19 16 50.109380 +40 36 45.57950
 2018-Dec-20 10:27  m  19 16 50.041933 +40 36 45.36834
 2018-Dec-20 10:28  m  19 16 49.974504 +40 36 45.15757
 2018-Dec-20 10:29  m  19 16 49.907093 +40 36 44.94718
 2018-Dec-20 10:30  m  19 16 49.839700 +40 36 44.73717
 2018-Dec-20 10:31  m  19 16 49.772326 +40 36 44.52755
 2018-Dec-20 10:32  m  19 16 49.704969 +40 36 44.31831
 2018-Dec-20 10:33  m  19 16 49.637629 +40 36 44.10945
 2018-Dec-20 10:34  m  19 16 49.570306 +40 36 43.90099
 2018-Dec-20 10:35  m  19 16 49.503000 +40 36 43.69290
 2018-Dec-20 10:36  m  19 16 49.435711 +40 36 43.48521
 2018-Dec-20 10:37  m  19 16 49.368438 +40 36 43.27790
 2018-Dec-20 10:38  m  19 16 49.301181 +40 36 43.07098
 2018-Dec-20 10:39  m  19 16 49.233940 +40 36 42.86444
 2018-Dec-20 10:40  m  19 16 49.166714 +40 36 42.65830
 2018-Dec-20 10:41  m  19 16 49.099504 +40 36 42.45255
 2018-Dec-20 10:42  m  19 16 49.032309 +40 36 42.24718
 2018-Dec-20 10:43  m  19 16 48.965129 +40 36 42.04221
 2018-Dec-20 10:44  m  19 16 48.897963 +40 36 41.83763
 2018-Dec-20 10:45  m  19 16 48.830812 +40 36 41.63343
 2018-Dec-20 10:46  m  19 16 48.763675 +40 36 41.42964
 2018-Dec-20 10:47  m  19 16 48.696552 +40 36 41.22623
 2018-Dec-20 10:48  m  19 16 48.629443 +40 36 41.02321
 2018-Dec-20 10:49  m  19 16 48.562346 +40 36 40.82059
 2018-Dec-20 10:50  m  19 16 48.495263 +40 36 40.61837
 2018-Dec-20 10:51  m  19 16 48.428193 +40 36 40.41653
 2018-Dec-20 10:52  m  19 16 48.361136 +40 36 40.21510
 2018-Dec-20 10:53  m  19 16 48.294090 +40 36 40.01405
 2018-Dec-20 10:54  m  19 16 48.227057 +40 36 39.81341
 2018-Dec-20 10:55  m  19 16 48.160036 +40 36 39.61316
 2018-Dec-20 10:56  m  19 16 48.093026 +40 36 39.41330
 2018-Dec-20 10:57  m  19 16 48.026028 +40 36 39.21384
 2018-Dec-20 10:58  m  19 16 47.959041 +40 36 39.01478
 2018-Dec-20 10:59  m  19 16 47.892065 +40 36 38.81612
 2018-Dec-20 11:00  m  19 16 47.825099 +40 36 38.61786
 2018-Dec-20 11:01  m  19 16 47.758144 +40 36 38.41999
 2018-Dec-20 11:02  m  19 16 47.691199 +40 36 38.22252
 2018-Dec-20 11:03  m  19 16 47.624263 +40 36 38.02545
 2018-Dec-20 11:04  m  19 16 47.557338 +40 36 37.82878
 2018-Dec-20 11:05  m  19 16 47.490421 +40 36 37.63251
 2018-Dec-20 11:06  m  19 16 47.423514 +40 36 37.43664
 2018-Dec-20 11:07  m  19 16 47.356615 +40 36 37.24117
 2018-Dec-20 11:08  m  19 16 47.289725 +40 36 37.04611
 2018-Dec-20 11:09  m  19 16 47.222844 +40 36 36.85144
 2018-Dec-20 11:10  m  19 16 47.155970 +40 36 36.65717
 2018-Dec-20 11:11  m  19 16 47.089105 +40 36 36.46331
 2018-Dec-20 11:12  m  19 16 47.022247 +40 36 36.26984
 2018-Dec-20 11:13  m  19 16 46.955396 +40 36 36.07678
 2018-Dec-20 11:14  m  19 16 46.888552 +40 36 35.88412
 2018-Dec-20 11:15  m  19 16 46.821715 +40 36 35.69187
 2018-Dec-20 11:16  m  19 16 46.754885 +40 36 35.50001
 2018-Dec-20 11:17  m  19 16 46.688060 +40 36 35.30856
 2018-Dec-20 11:18  m  19 16 46.621242 +40 36 35.11752
 2018-Dec-20 11:19  m  19 16 46.554430 +40 36 34.92687
 2018-Dec-20 11:20  m  19 16 46.487623 +40 36 34.73663
 2018-Dec-20 11:21  m  19 16 46.420822 +40 36 34.54680
 2018-Dec-20 11:22  m  19 16 46.354025 +40 36 34.35737
 2018-Dec-20 11:23  m  19 16 46.287233 +40 36 34.16834
 2018-Dec-20 11:24  m  19 16 46.220446 +40 36 33.97972
 2018-Dec-20 11:25  m  19 16 46.153663 +40 36 33.79150
 2018-Dec-20 11:26  m  19 16 46.086884 +40 36 33.60369
 2018-Dec-20 11:27  m  19 16 46.020109 +40 36 33.41628
 2018-Dec-20 11:28  m  19 16 45.953337 +40 36 33.22927
 2018-Dec-20 11:29  m  19 16 45.886568 +40 36 33.04268
 2018-Dec-20 11:30  m  19 16 45.819802 +40 36 32.85648
 2018-Dec-20 11:31  m  19 16 45.753039 +40 36 32.67070
 2018-Dec-20 11:32  m  19 16 45.686279 +40 36 32.48532
 2018-Dec-20 11:33  m  19 16 45.619521 +40 36 32.30034
 2018-Dec-20 11:34  m  19 16 45.552764 +40 36 32.11577
 2018-Dec-20 11:35  m  19 16 45.486009 +40 36 31.93161
 2018-Dec-20 11:36  m  19 16 45.419256 +40 36 31.74785
 2018-Dec-20 11:37  m  19 16 45.352504 +40 36 31.56450
 2018-Dec-20 11:38  m  19 16 45.285753 +40 36 31.38155
 2018-Dec-20 11:39  m  19 16 45.219002 +40 36 31.19901
 2018-Dec-20 11:40  m  19 16 45.152252 +40 36 31.01688
 2018-Dec-20 11:41  m  19 16 45.085502 +40 36 30.83515
 2018-Dec-20 11:42  m  19 16 45.018752 +40 36 30.65383
 2018-Dec-20 11:43  m  19 16 44.952001 +40 36 30.47291
 2018-Dec-20 11:44  m  19 16 44.885250 +40 36 30.29240
 2018-Dec-20 11:45  m  19 16 44.818498 +40 36 30.11230
 2018-Dec-20 11:46  m  19 16 44.751744 +40 36 29.93260
 2018-Dec-20 11:47  m  19 16 44.684990 +40 36 29.75331
 2018-Dec-20 11:48  m  19 16 44.618233 +40 36 29.57443
 2018-Dec-20 11:49  m  19 16 44.551475 +40 36 29.39595
 2018-Dec-20 11:50  m  19 16 44.484715 +40 36 29.21788
 2018-Dec-20 11:51  m  19 16 44.417952 +40 36 29.04022
 2018-Dec-20 11:52  m  19 16 44.351186 +40 36 28.86296
 2018-Dec-20 11:53  m  19 16 44.284417 +40 36 28.68611
 2018-Dec-20 11:54  m  19 16 44.217646 +40 36 28.50966
 2018-Dec-20 11:55  m  19 16 44.150870 +40 36 28.33362
 2018-Dec-20 11:56  m  19 16 44.084091 +40 36 28.15798
 2018-Dec-20 11:57  m  19 16 44.017308 +40 36 27.98275
 2018-Dec-20 11:58  m  19 16 43.950521 +40 36 27.80793
 2018-Dec-20 11:59  m  19 16 43.883730 +40 36 27.63351
 2018-Dec-20 12:00  m  19 16 43.816933 +40 36 27.45949
 2018-Dec-20 12:01  m  19 16 43.750132 +40 36 27.28589
 2018-Dec-20 12:02  m  19 16 43.683325 +40 36 27.11268
 2018-Dec-20 12:03  m  19 16 43.616513 +40 36 26.93988
 2018-Dec-20 12:04  m  19 16 43.549695 +40 36 26.76749
 2018-Dec-20 12:05  m  19 16 43.482871 +40 36 26.59550
 2018-Dec-20 12:06  m  19 16 43.416040 +40 36 26.42391
 2018-Dec-20 12:07  m  19 16 43.349203 +40 36 26.25273
 2018-Dec-20 12:08  m  19 16 43.282360 +40 36 26.08196
